Origin Time       2011/03/11 14:46:00
Lat.              38.0
Long.             142.9
Depth. (km)       24
Mag.              9.0
Station Code      MYG002
Station Lat.      38.7262
Station Long.     141.5109
Station Height(m) 79
Record Time       2011/03/11 14:46:41
Sampling Freq(Hz) 100Hz
Duration Time(s)  300
Dir.              E-W
Scale Factor      3920(gal)/6182761
Max. Acc. (gal)   658.030
Last Correction   2011/03/11 14:46:26
Memo.             
[...]
    7318    31766    49081    53348    39682    15058     9024    28961 
   49132    57177    59735    49918    24773     6248     4033    10661 
   27190    44118    38309     8829   -11053     9740    52841    73399 
   58417    25708      651     3007    26427    43523    41613    36723 
   39095    33336    16026     6583    12332    26000    43375    57536 
   58451    48795    34956    16622     3951    10513    30634    45008 
   43327    40412    51521    59410    40118     2648   -17125     4343 
   44131    58389    43378    30907    33007    34505    24732     2675 
  -13773    10499    60678    79060    60500    43343    31529      787 
  -32739   -20692    31596    69607    77284    73183    52733    17202 
   -2398     3469    12778     7683    -4349     8145    50116    76066 
   58997    29810    29583    59592    78361    51412     2636   -21155 
  -23913   -32037   -19548    46211   119964   129476    69530    -6928 
  -38648    -5147    34539    21809    -2439    29625    96818   116476 
   60725    -2419    -2645    33671    34492    -4804   -31535   -12180 
   32423    44529    25167    47296   103504   100503    25548   -37219 
  -23579    30414    30073   -15502    -4762    59258    92563    66013 
    8783    -9374    29368    45298    31049    55308    83226    50102 
   -9480   -39981   -13552    63686   120477   103078    48865     6561 
  -19943   -37990   -40915    -8731    46332    76445    79178    74502 
   47719    11451     6934    28921    31330   -12054   -63843   -61618 
    7299   101431   146631   101062    32298    21680    40205    22417 
  -17401   -17335    16622    27701    11616     -935    28139   108568 
  152979    96410     1198   -47300   -24885    15855    16748    12635 
   47000    83758    83525    44672    -2876     3545    58352    66740 
   20852    10813    44905    53426     9495   -49463   -52949     7344 
   47539    45724    60861    95684   111460    87421    16594   -68307 
  -93584   -24530    66667    93867    82682    76881    47671     -210 
  -11586    23519    72639    89660    52389     4482   -19468   -29128 
   -6840    45730    68546    59042    63351    61663    17171   -33828 
  -23566    49888   109334    92475    13632   -56199   -41854    37263 
   72166    47729    51813    82851    57797   -25582   -76652   -40955 
   42610    93406    60389    -3795    -4757    39134    45786    15884 
    9872    48687   101534   124771    80135   -29047  -121075  -112880 
  -17086    91290   143202   126122    87265    48042    12410    14822 
   33563    11529    -4760    47063    95746    53447   -42065   -82394 
  -18808    82222   126082    85511    22275    22010    54409    27471 
  -38543   -65776   -28897    50305    94195    37596   -47714   -42955 
   42188   103509    92429    53209    37113    46923    56477    51072 
   36666    12968   -12414   -13285    12201    35783    35165    21736 
   34270    83680   120328    95009    35184   -10109   -48510   -63697 
  -10018    58939    76368    79338    74200    35918    43596   101696 
   66307   -25628   -10341    45152    22630   -13386   -24261   -33950 
  -16912    20959    53686    83567    89308    59302    28259    18163 
   16716     7490   -27756   -72754   -65664     8696    99004   140339 
   97735    20724    -2005    38327    72578    55135     3831   -32059 
  -16651    19588    19290    17402    47482    23339   -42431   -14032 
   72494    93678    63945    33537    14502    30287    61720    39987 
  -22393   -23028    71472   156965   129415    30115   -37622   -52755 
  -39869   -14219     2060    17614    73275   157194   192442   125907 
   -2096   -98130  -106250   -33868    51627    54206    -8991     -142 
   93505   143965   104318    28742   -10942    12868    60453    79939 
   33962   -42505   -47618    10419    37262    37858    46966    51147 
   70790   101401    65691   -47911  -122670   -66016    47139    92452 
   61792    27314    27584    45629    72407    80418    39464     9859 
   24980    30558    17639    23809    48145    34472   -34218   -60149 
   25560   135131   147302    46518   -81603  -105372    13881   127939 
  103846     5243   -34538    19749    75509    61718    59806   106150 
   90445    17254     5391    34344    20507   -10331   -17813   -22874 
  -11607    48693   109752   125167   117176    85313    12295   -66081 
 -106814  -111167   -90959   -44435    20968    99165   181579   187830 
   62450   -64928   -56082    30565    76595    56929     1556   -40706 
   -6560    84791   122529    77963    42324    59868    60025     4815 
  -43418   -58950   -67817   -43563    45304   155900   221005   209833 
  132596    26608   -54512   -71541   -51502   -47463   -74020  -100259 
  -58963    56214   169639   231621   206385    69405   -97218  -148593 
  -62214    40147    86419    93336    94452   107091    61139   -63075 
 -143050  -108374     8173   137159   209756   191049    88695   -37537 
 -123057  -138057   -75026    41411   142416   172203   147823   112337 
   81428    35130   -51802  -140349  -170611  -134341   -37253    61386 
   81697    80295   131290   197532   230316   208744   136782    28861 
  -84562  -142333  -135804  -115786  -103073   -74622     1406   121608 
  215019   223496   154724    40429   -28190    -3620    22279     6927 
  -17110   -26240    -2127     3132   -39484   -31377    60990   117115 
   85861    60690    76646    77943    68978    73190    41120   -44974 
 -108665   -79148    33185   141795   150229    55244   -29867   -13403 
   45919    41811   -19087   -56291    -6742   126253   212170   136150 
    8255   -21150   -12787   -48802   -61475   -28215    -7094    11548 
   42727    52517    34360    28806    77630   140393    97876   -49648 
 -132015   -85905   -15828    21212    39955    59584   105989   189131 
  224108   100921  -109143  -214290  -127834    28164    79410    73839 
  117250   132202    66375   -19150   -69158   -20569   110606   177723 
  110734    -4035   -69300   -73601   -57656   -38154     2015    71446 
  152355   210721   206101   120980   -19522  -142637  -135001    -2214 
   89986    83755    70336    77076    54543     7828    -8230   -17466 
  -53410   -27200    82276   131115    91914    76034    55893   -13412 
  -17034    70062   128345   116122    70355     9615   -43393   -58674 
  -64124   -85233   -76295   -14069    65608   130158   167038   186670 
  213437   223542   150280   -32480  -218542  -231527  -104943    -3714 
   77467   151247   135609    83607    77126    33038   -55172   -70758 
  -25782    33555   120405   182603   159274    78313    -4120   -63446 
  -82322   -40741    24695    27908   -13335     -590    47876    87940 
  111845    56798   -27107    -7181    80762   104592    18831   -99710 
 -143105   -71661    28924    49985    35258    47928    79988   152644 
  234683   204533    44450  -105034  -182987  -223835  -172750    -8109 
  150479   207717   189664   144738    54827   -74656  -152486  -134858 
  -64132    39848   160965   243350   245173   149787   -16559  -132139 
 -115432   -55010    -2497    90198   177815   191159   140493    28767 
 -106197  -122169    21483   156258   149854    50376   -37260   -78760 
  -59301    32061    89574    43460     2145     7415   -20671   -54814 
  -25264    25064    53059    58552    42315    49737    91865    96301 
   40173   -27608   -47025    22285   117087   151475   137131    70009 
  -34559   -63912    -1316    66179   106836   106618    63029    10524 
  -40950   -49799    48982   171341   173493    75182   -27023   -93058 
 -108743   -97739   -83362   -23996    77556   157507   200583   185560 
   89317   -23363   -81944   -92216   -87493   -39118    50748    50488 
  -44276   -45061    89549   195154   185901   117780    23110   -81199 
 -144121  -155053  -120026   -15061   108310   139129   100487    80859 
   66328    36624      167   -29432    -3946    29196    -2219   -20797 
   15365    45788    31680    -5729    34890   186870   314468   291391 
  134745   -74269  -210053  -148571   -23437   -64100  -180927  -141739 
   54390   246581   357725   363514   210839   -50567  -230675  -189138 
  -29756    -3837  -102752   -82600    25423    58234    69568    78843 
   90066   167264   181920    45790   -62993   -45426    15490    57976 
   13550  -125542  -155160    31102   232947   282199   211330   117826 
   56299    -1677   -55289   -45571     8379    36781    11483   -54188 
  -63461    48555   138061    89501     5308   -22507   -39740   -72933 
  -55472     -814    12115     3941    10661    17094    -7159   -25742 
   67364   216116   258332   193121    95269   -43918  -230175  -336065 
 -222300    44052   250404   283349   216277   163078   150380   130627 
   23977  -178614  -302490  -200429     1429   150316   250829   297189 
  265132   202991   116019   -55954  -206993  -188858   -84767    -9527 
     632   -66621   -66182    79421   172526   140764   115576   145385 
  186471   155210    38003   -87310  -189750  -227302  -134891    25936 
  135250   159782   127888    90308    66822    30326    12143    66818 
  130719    91802   -51069  -184030  -172439     -849   200977   328623 
  340207   208832    31445   -48152   -83904  -175560  -217095  -110309 
   43858   162688   256808   274436   193280    93783    29246    22149 
   61917    80640    62380    69714   110930   114845    62283    -1739 
  -53980   -72288    -7877   104109   109681   -20822  -141644  -167744 
 -105830   -24052    21664    84422   168696   223047   261103   261080 
  183499   104965   106276   122178    63126   -24995   -38097    27419 
   97586   114254    36331  -114159  -234593  -233747  -115254   -10734 
  -50313  -187675  -291810  -321464  -262856  -106797    75391   207613 
  204367    35508  -155627  -289660  -363567  -242740   112978   470858 
  592311   515187   418139   333807   209775    51827  -125931  -364865 
 -635246  -720999  -504208  -127779   261127   568142   713939   689136 
  484326   177528   -62149  -212092  -246446   -56903   249106   420269 
  335895    62678  -201613  -294995  -212096   -41336    88664    72620 
  -73385  -284038  -429432  -324643   -46837   165489   240451   156409 
  -19583   -88634   -46608    12750   110279   139275    14778   -56179 
   14344    26109   -51618   -54911   -19150   -41367   -23677    79336 
  173642   220841   254623   260770   139141   -95850  -277961  -304546 
 -134986   150055   275540   121733   -96694  -185429  -205235  -227788 
 -140315    89213   301832   421292   471718   461024   383166   243927 
  133736    95167    34780   -96422  -280281  -456121  -529290  -486528 
 -360482  -124354   210468   474064   575151   638266   645377   451460 
  112824  -210979  -378790  -308127   -87601   101606   174279   164164 
  116314   108456   201627   318940   409068   452526   366492   203387 
   70898   -76460  -249187  -338772  -259292   -16666   189645   166865 
   64051    10623   -91736  -173693  -177770  -227711  -267830  -215626 
 -160934   -99275    35623   187883   292617   323473   243425    83395 
 -108605  -297703  -352672  -218259   -17334   156890   276463   317818 
  289285   221751   147857    85398     6332   -77209   -65271    15454 
   58610    90236    51681  -100383  -184135  -192871  -207708  -134021 
  -26068    12332    70057   198426   306788   319941   307828   336370 
  295522    98066  -154055  -285051  -204400      -30   150456   217638 
  273271   234467    75722     6014    56221    72266    63055    55799 
   13350   -70500  -240609  -471384  -620062  -590031  -364028   -40146 
  202378   314264   355440   310515   191456   111208    95323    53295 
  -85097  -241875  -276625  -255758  -301519  -348012  -314272  -167390 
   80652   278522   361537   460321   570670   533531   345142   129337 
  -51437  -174990  -249099  -281898  -170632   114577   335655   279412 
   49038  -136308  -221321  -236389  -162789   -25292    71506    76639 
   42382    55902   148820   254926   325628   369414   332355   153114 
 -130498  -399483  -501426  -372033  -142962   -45798  -105572  -111435 
    2671   142550   243080   245385   218618   234024   148353   -73979 
 -244586  -235227   -36568   228201   306410   178619   107193   100190 
   10383   -72999  -127046  -219829  -258177  -196853   -89306    42239 
  138320   156364   157769   173691   192976   233515   257809   231443 
  187369   141555   102540    69566     5607  -102181  -174284  -124528 
  -33784   -61426  -191235  -275585  -267760  -157244    60528   236940 
  327556   444369   525486   462686   282453   100496    15113   -37375 
 -142141  -292317  -457004  -517743  -356726   -72813   144714   243017 
  239297   153256    42209   -40556   -56437   -14207    19429    59961 
  185655   351358   408565   307922   152840     3070  -171870  -291912 
 -267387  -225969  -278462  -275659  -108901    46291   125736   285978 
  445218   472598   472449   440213   260924   -52003  -367428  -545948 
 -524852  -282013    73133   314934   351900   205274   -31953  -152384 
  -75158    72759   169056   130639     9938    11716   135177   172775 
   54292   -65662   -47133   -24742  -130394  -195728   -82980   123189 
  337452   527658   655744   713937   705898   588336   347263    89958 
  -76511  -169345  -279146  -466031  -633273  -635919  -534033  -431035 
 -291128  -127179   -41094   -56795   -64326     4708    47407    32561 
   58121   107980   119839   108792    76266     1497   -49599    46019 
  285201   545636   711188   701818   553430   370336   131155  -213456 
 -580585  -874922 -1009341  -904127  -631528  -311901   -14296   198284 
  360137   521221   627561   650393   600242   435153   147805  -114229 
 -258535  -352617  -291506    24300   339797   455504   414768   229483 
  -34066  -204790  -215192   -58326   230942   476181   561268   508694 
  341669   129720   -59844  -236225  -377115  -446428  -449339  -371345 
 -206437     1966   213880   376409   436383   438652   398195   207416 
  -71148  -221646  -232027  -162598    13599   215957   297305   198024 
  -47624  -295058  -414366  -457355  -442797  -269796   -67671   -32373 
  -36468    73923   257010   450285   570636   547307   386127   123853 
  -85619  -101516   -28527   -29858  -138381  -298743  -429642  -433693 
 -271905  -102970   -56499   -28452    64867   219062   401952   509594 
  527846   471823   217268  -174793  -430531  -495225  -441046  -270664 
  -74402    59362   141167   141372    70264    42863   107890   221952 
  355006   458998   420235   202615   -40031  -142700  -131329  -133700 
 -163540   -88295   165785   442408   550646   543600   485618   216157 
 -230303  -537027  -694669  -839639  -704377  -147486   403313   658955 
  715748   484484   -56756  -452327  -514227  -432916  -104576   376206 
  550077   356427    27183  -212762  -233604  -144896    13706   242721 
  391446   434710   388012   189419   -30970   -35192   145122   244216 
  134084   -83544  -309454  -537454  -635322  -406926   -42526    82773 
   57079   152238   274171   327296   351444   209337   -44374   -51538 
  211851   412715   420961   342108   183505   -90457  -353924  -477696 
 -523842  -580015  -550361  -377812  -280771  -368556  -430747  -372798 
 -290151  -210118  -124510   -29169    77981   182331   328999   567548 
  806928   871407   698827   368478    17745  -140103    15842   288335 
  380028   264499    97896   -90484  -283545  -352053  -214818   109151 
  432926   569198   534767   257773  -253305  -611705  -657073  -578677 
 -399025  -125064   106745   262891   346945   329351   258579   165025 
   -9022  -218795  -294437  -178449    -8642    67699    57914    71015 
  177724   326543   377778   228686   -66245  -291351  -369148  -421860 
 -347242   -29596   261892   307271   136265  -165050  -366436  -271777 
    8660   315440   593754   715458   549594   205962   -40048  -140942 
 -187455  -111296   -13048  -108284  -302444  -458948  -586917  -582359 
 -278636   175612   399947   407297   427923   340927   137726    53415 
  -19994  -232258  -398074  -409948  -312267  -107913    56975    45367 
   39197   173611   341529   507410   649126   615978   388411   150960 
   16131   -68964  -175179  -273764  -285917  -205597  -113550  -122924 
 -221329  -179041   113886   405479   500416   463781   249916  -116499 
 -314444  -248272   -45078   208855   266331    46743  -156505  -164851 
  -17152   143138   155013    41955   -55003   -10513   187992   388500 
  480070   478218   394727   266802   175366    95083     -606   -19355 
   13098   -46101  -229386  -427843  -506812  -486779  -437492  -315032 
 -123709    82075   257860   329043   341992   376722   333084   156677 
  -42529  -212269  -333826  -292187  -100735    -4402   -97335  -236392 
 -300133  -164730   121495   289005   417650   670235   737666   501133 
  247997    93657    15806   -18153   -79196  -173942  -250846  -258599 
 -230554  -160389    58132   254504   173352   -34189  -123989   -73486 
   51156   174478   229243   148825   -41233  -142555   -61490    67924 
  151361   166446    86345   -66569  -214650  -244356  -119376    95302 
  273607   206387   -62507  -151329    19622   193649   314842   390166 
  340872   219153    61816  -156133  -320317  -294710  -115828    16056 
   11116    28086    75477    21041    24735   216643   349876   210777 
  -94181  -318943  -357789  -238052    14637   214825   217855   185389 
  124531   -64033  -195807  -166810   -18446   259462   468480   401226 
  206719    39013  -143219  -334166  -465405  -509802  -448708  -252399 
    5696   132814    74454    16596    61538   116749   179038   287293 
  359413   314792   117402  -145432  -227024   -11620   339458   526603 
  367349    31797  -202614  -315931  -399052  -383616  -171572    48998 
    4552  -210558  -339808  -399096  -453462  -338788   -15169   300133 
  481592   515068   389909   240366   231066   289871   282481   174270 
  -67621  -367905  -530867  -402990   -14686   256297   107154  -205591 
 -324160  -201697    42624   297946   570120   766948   611682   137788 
 -255713  -420095  -472820  -325711    31575   228363   112972   -54852 
 -124911  -104821      804   128799   238611   302778   265749   218413 
  223373   140111   -44525  -172155  -141664     6427    98798    97366 
  104032    77758    20186    68564   177033   167316    17655  -150572 
 -263589  -356995  -421002  -338135   -79457   195950   356530   447466 
  477118   375896   240423   200281   212807   208822   107716  -142716 
 -394997  -502063  -416343  -129062   129204   166912   158487   197727 
  186887   158270   142288    70196   -70329  -221816  -305742  -280790 
 -122551   170036   417929   439013   297844   125357    26331    65309 
  182165   309517   357697   218225   -40026  -282013  -471617  -593989 
 -588865  -439141  -239922   -62826    68900   125494   157115   231101 
  323905   413649   490086   462835   300510   150930   136222   159782 
   44293  -168591  -313857  -390332  -401128  -285675  -122034   -53606 
 -124406  -181758   -60071   104743   170089   264886   456936   597341 
  533053   284806    34858   -91045  -158676  -255181  -311265  -224504 
  -55890    52854    94710   125718    77667   -90003  -242181  -280857 
 -256611  -178076     8209   224818   330744   322402   307078   368907 
  431864   336915   129525   -35185  -158141  -255884  -256368  -154840 
  -37049   -19944  -139738  -218973  -152903  -110567   -95570    84756 
