Origin Time       2011/03/11 14:46:00
Lat.              38.0
Long.             142.9
Depth. (km)       24
Mag.              9.0
Station Code      IBR003
Station Lat.      36.5915
Station Long.     140.6453
Station Height(m) 58
Record Time       2011/03/11 14:47:05
Sampling Freq(Hz) 100Hz
Duration Time(s)  300
Dir.              E-W
Scale Factor      3920(gal)/6182761
Max. Acc. (gal)   1185.912
Last Correction   2011/03/11 14:46:50
Memo.             
[...]
   78733    98481   123789   175084   180571   112351    43403    12861 
   -5631   -31994   -84860  -171324  -274700  -356629  -351912  -255646 
 -127779    10076   120925   137144   102826   132804   228488   293779 
  282032   215359   127607    29304   -93363  -200920  -202768  -102048 
  -23562   -48249  -114843  -151957  -183727  -218920  -184695   -56271 
   85337   188531   266388   298420   262714   201450   146107    64466 
  -53931  -147831  -177664  -176038  -167840  -139455   -93285   -64030 
  -85630  -151565  -211354  -222676  -172756   -35975   193867   409657 
  464109   353279   201245    95715    38078   -15184   -84773  -124292 
 -101427   -70352   -91087  -119564   -96874   -77633   -87198   -53422 
   13516    27498     -316    37053   151862   196657   112418    27668 
   -1248   -28052   -27215    56925   156403   126899   -20614  -118030 
 -122023  -105924   -68786     9240    56219   -16747  -156022  -219264 
 -161439   -38548    75657   129748   115007    64825    28033    22793 
   46329   104472   167305   174182   110705     5583  -107245  -199624 
 -246066  -219475  -132944   -31359    53500    88093    63123    31907 
   59692   114273    90549    23347    44496   107320    64082   -77893 
 -191524  -212930  -181514  -147966  -125482   -91154   -25675     8540 
  -47223  -137997  -187906  -149755    -9852   164478   297129   344117 
  271627   143519    76940    65087    51414    59345    77923    24733 
  -92834  -152481   -87137    17392    33659   -46832  -123600  -135771 
 -118804  -116191  -107783   -68479   -40037   -38124   -17610    -6910 
  -42310   -39881    43905   121468   131879   104691    88763    95988 
  106037    98933    51076   -40930  -129211  -166714  -146598   -91344 
  -37812      684    32124    52171    71526   115461   148839    73699 
  -99653  -174602   -51240    94529    96908    15788   -32889   -35590 
  -29572   -32423   -42300   -55936   -77040   -91955   -58403    13408 
   73396   130789   176064   157892    90685    32948     4930   -44621 
 -130160  -174727  -167572  -156393  -144381  -112099   -45076      987 
  -31441   -75168   -53315    42201   159178   181064    92986    19619 
   12898    14489   -12364   -25906    15429    72746    90501    66119 
   48005    52384    20882   -52889  -123657  -169301  -164279  -121072 
  -65464     5898    57471    62395    58043    64669    53723    17701 
   -4082    14239    78947   182134   261046   264398   189263    26227 
 -169499  -246490  -152842   -63345  -135001  -262570  -287164  -198222 
  -26989   163041   235403   131954   -33460  -123312  -112831   -48160 
    3302     6971    18968    54312    31351   -29986   -37303   -26789 
  -70315  -115685   -60256    74180   137998    75422    -1944     3360 
   65004   115164   150313   177947   148501    57564   -12154    -9959 
   11014   -40407  -135483  -141073   -56354    -8335   -25405   -44574 
  -60470   -84887   -76635   -58623   -88159   -98782   -32837    44519 
   79088    85275    88985    92832    97395    96224    55526   -32115 
 -144415  -270641  -387899  -428217  -318825   -96958   110891   239523 
  284548   236786   133182   111985   241878   343925   284064   202252 
  194308   149703    -3818  -155857  -198493  -194761  -202165  -161118 
  -90645  -112655  -202142  -214401  -158563  -128374  -106814   -51543 
   13565    55786    79931   103487   128199   142867   140178   128682 
   95276    27994   -24785   -47571   -88121  -127144   -92090   -12888 
    3871   -36145   -30803    36313    69978    27800    -3992     2858 
  -18543   -35957     5851    45851    31560    -1255   -13356   -35189 
  -85648   -91547   -26877    33583    56802    73106    99504   109860 
   69255    14766    21548    57179    33425    -8332    13187    33061 
  -29613  -112686  -139286  -130486  -125938  -106528   -34166    75726 
  156865   142993    44556   -49218   -74420   -45100   -32663   -42659 
   13246   120366   176045   158429    94315     9826   -30637    45630 
  169288   155892       77  -106242   -95635   -76680   -75030   -41607 
  -37247   -89494   -97992   -40118     5061     7076    14504    60025 
   88241    54092    16754    49922   145258   231934   235419   120992 
  -81694  -261942  -302434  -240904  -205237  -199324  -163625  -124313 
 -123905  -114992   -42372    20068    25047    82738   169347   139286 
   67602    48499    -1301   -51215    31658   172625   180276    65974 
  -11915   -12770    17523    89100   197201   258785   212517    79296 
  -65980  -148378  -161642  -143780   -98567   -25177     5547   -70550 
 -163269  -166227  -152903  -189255  -187168   -98861     5950    83490 
  161381   227778   204993   124634   119448   176398   184993   136342 
   60747   -56809  -183735  -206702  -118151   -68065  -102945   -94538 
    1663    54873    -8089   -69328   -32377    34189    64376    59243 
   10030   -48827   -64491   -49253   -21064    27829   101488   161499 
  156720   126981   122589    89334   -39509  -225963  -332941  -274811 
 -117764    31002   106221    53001  -121403  -255354  -177241    28679 
  148873   167677   187300   180032    65477   -76822  -126025  -107104 
  -39929    53919    55700    -4351    20412    94595    93192     -195 
 -116909  -165655   -82221    65682   119744    92052   119438   145965 
   49195   -70635   -82681   -42882   -24365     -873    51390    82609 
   35442   -33950   -35988   -23229   -84384  -130584   -24768   136821 
  163185    77648     9118   -41332  -115520  -173168  -173068  -113799 
  -20419    48378    71066    67517    58656    52639    19324   -32629 
  -27447    74607   184309   161400    66422    47672    37985   -48867 
 -108145   -47954    34889    14596   -19449    31421    25061   -92584 
 -123085     1867    85037    16762   -44605   -18397   -42104  -130860 
 -150683   -76831   -13537   -17466   -29855   -46210  -132334  -238008 
 -229378   -68966   139540   253363   250780   246757   256973   186468 
  108402   149074   225626   216699   131619    12606  -129510  -270410 
 -338741  -301015  -223956  -151233   -35971   111725   155369    26651 
 -142945  -208285  -191197  -136242      952   154277   171850    93166 
   44000    16508   -16439    -6317    47378    37554   -74758  -157303 
 -156714  -175572  -184151   -67161   116702   224979   226471   212910 
  211152   102239   -88110  -175638  -160830  -124285    -5109   200018 
  311755   222148    60746   -47590  -144546  -252221  -276171  -175414 
  -85888  -132177  -218155  -187898   -65363    62564   208795   325133 
  291826   153487    38209   -14624    -8233    15053    10142     8282 
   10488   -35378   -78937   -50353    -9256   -14077   -59622  -155600 
 -264966  -272301  -119835   124528   344638   440108   371018   182953 
  -29986  -132849   -44009   103751   130969    56386   -34986  -122667 
 -197763  -263636  -317023  -315440  -220598   -75241     -958   -32181 
  -72712   -53853    25041   130452   232474   303843   244538    59551 
  -19427    79281   134278    86656   108793   156829    45236  -107149 
 -106742   -95754  -220664  -313866  -237660  -111624   -57395   -31750 
   13381    26156    35735   146149   269460   258234   173056   140759 
  136772    41890  -107205  -190518  -242565  -275854  -222559  -100645 
   12908    17494   -83318  -132801   -61960    55490   132638   147152 
  141127    85612   -37978   -81629     1599    41576   -14170   -31910 
    2224   -35703  -122050  -170047  -207041  -183027   -20778   158722 
  201856   158086   160493   160909    74263    -3977    -5233    41129 
  113496   143385    57736   -75080  -119056  -118118  -197515  -286753 
 -269636  -173733   -61644    41046    92831    63332    46212   115647 
  151125    89681    31284   -18758   -86854   -60338    82935   179614 
  174159   139407    67333   -10901     9386    63288    26468   -34391 
  -18256   -51563  -250614  -343101  -163728   -54808  -142198  -166247 
  -97072   -49676    22503   161882   227019   110973   -39033   -85610 
  -38383    75259   167627   153815    70672   -23134  -128637  -178709 
  -95483   -19208   -17742    61540   130590    10696   -68886   134032 
  329566   185039   -39209     3235   147045   166751   116632     1592 
 -200714  -303082  -212208  -110338   -74912   -35897   -64962  -203068 
 -245748   -91246    24526     4313    77085   220186   152075   -79748 
 -186483   -96073    -8968  -108534  -215260   -28806   284335   357335 
  212276   109460   138993   114972   -46387   -91565    65210   171256 
  100468    32874    92790    47468  -192559  -307481  -210633  -105926 
  -72386   -94187  -118456  -137504  -155741  -104841   -36493    38804 
  186459   251066   167033    58105   -34783   -91278  -132523  -152646 
  -66830   134439   358088   376284   130269  -110293  -278083  -432911 
 -391252  -127564   135116   299656   362498   277861    22363  -241376 
 -277736  -144666   -18670    84329   142000   123027    40213    -2408 
  173742   357740   127418  -305517  -387869  -176419  -144963  -284235 
 -180170   136574   226112    36386   -54759    72060   145293    20647 
 -124304  -163919  -247093  -357605  -156396   292158   468612   306541 
  182998   152127    27381  -109300   -57225   107014   144475    61552 
   56583    97155   -37623  -310674  -425304  -300333  -152201   -69743 
   58716   159235    31147  -187697  -215731  -137618  -178393  -268183 
 -181300    78196   247118   236372   252378   264292    97020   -21603 
   71493   182301   238383   194729    -4234  -167364  -149095   -54872 
  -20614    -5748    60692    -1337  -256449  -389090  -303848  -279870 
 -345182  -195757   171752   338764   139987   -58263    41105   211279 
  230974   279387   351296   210525   -53428  -186502  -106522    66720 
  112262    40319    35057    26804   -49294   -17066    73127   -10782 
 -211473  -244805   -26463   136207    45049     1548   185738   245823 
  -24175  -272825  -168885    60778   -18268  -362452  -552748  -412962 
 -187198   -91409     9749   187841   266657   201775   127588    47620 
 -119740  -192401   -73350     7132    55171   183859   258252   206219 
  131838   146109   184326   147269   111595   102726    66246  -124074 
 -483326  -543217   -93001   296716   238196    20914   -90436  -161222 
 -155073   -96493  -199575  -255791     7851   297317   292560    88706 
   -6143   109244   236984   153834  -183656  -487437  -555840  -526699 
 -443499  -267636   -15828   180273   148832    50732    80395   194187 
  331925   323274   192912   279656   455426   406066   407902   573313 
  484595   115636  -213305  -463784  -629199  -556903  -308747  -182992 
 -297451  -420747  -315549   -97535   -51278  -124520   -68078    85271 
  240277   313929   193326   111538   134934   -85725  -384317  -315114 
   48285   354447   326407    32206  -167655  -205101  -264605  -348459 
 -390984  -314786    26753   419637   478404   381994   316544   123669 
  -40346   -79277   -55041   185484   415866   370665   272738   221988 
  147322    29524   -65253   -97489  -201101  -298872  -264012  -238054 
 -292657  -372798  -297283    27601   254813   160694    16909   -69903 
 -308094  -525017  -296090   247537   611052   564797   286517    92338 
  -89510  -355611  -370825   -65247   191543   195655   136858   168090 
   81229   -54933    13110    45256   -95907  -217096  -256898  -153151 
   93380   335432   510263   578580   562532   496446   197863  -307816 
 -623742  -648562  -599910  -525121  -406302  -223677    67270   154222 
 -151697  -296357   -88400   -93391  -312785  -251190    89134   376674 
  386462   186841    94535   165698   153609     4356   -64401   145627 
  473933   479267    83143  -306086  -363337  -175317     9146   177331 
  357384   422901   363786   161104  -144019  -175611    48326    24733 
 -205258  -315556  -397765  -583048  -716862  -588105  -218553   186493 
  374227   187794  -111028  -219876  -297760  -341301   -62688   350928 
  552458   551198   454089   368681   307264   263836   355622   461138 
  365502   194765    78366   -85286  -300371  -405213  -359703  -320179 
 -370398  -465397  -572404  -635712  -639007  -538597  -289720  -110980 
 -121870   -86314   163668   368665   196005   -24028    42338    93781 
   84478   155391   237112   404029   571018   563676   521991   540203 
  529715   387429   125483  -108108  -316362  -547633  -634440  -511679 
 -359030  -309020  -307822  -163799    65677    -4772  -329496  -496763 
 -415510  -168883    28308    36381   127150   213246    45668   114407 
  549340   727005   573885   390089   169584  -119222  -385068  -484481 
 -332198  -140266  -244671  -480416  -477257  -358410  -248094   -52305 
  106992   219912   393895   448421   415084   430549   253188   -40603 
 -187075  -355215  -566825  -528520  -176527   174718   220124     -730 
 -311012  -453746  -241758    32391   182224   417422   624465   567108 
  368115   337129   487252   301139  -302369  -650226  -521053  -323632 
 -258128  -237053  -237064  -275336  -331130  -387208  -382892  -158712 
  349922   839947  1028156   987873   761143   392280    10767  -378255 
 -631869  -600083  -455031  -271092   -29027   -43640  -310717  -403203 
 -459531  -518526  -165894   341992   694452  1039084  1122755   769793 
  324682  -130130  -668164  -958019  -805299  -535241  -401878  -428298 
 -571072  -612825  -489085  -383994  -337525  -354035  -304320   189797 
  890020  1039779   749865   691466   817360   812931   745539   647409 
  488950   307965   115584    89161   323442   503570   441567   267271 
   18071  -327163  -791220 -1395729 -1871861 -1830918 -1382003  -990822 
 -709998  -229702   464813  1018630  1166194  1026704   810891   575897 
  269641  -203578  -515355  -390537  -335902  -352844    51919   443309 
  512278   599510   563801   302082   116923   -53204  -268988  -299942 
 -227314  -136288   198617   626860   696819   447675   231864    64262 
 -185074  -471954  -846753 -1308261 -1593997 -1572787 -1226045  -488947 
  391243   964014  1181162  1119714   748724   519771   631461   571512 
  327272    80432  -271209  -435523  -378535  -646939 -1115906 -1179718 
 -965453  -697140  -221288   269150   673090  1025234  1088832   976848 
  786966   433811   280937   346068   261734   122713  -127370  -588466 
 -823408  -610203  -181498   125163   112265   -99701  -274254  -172920 
   87630     8363  -340233  -400967  -223507  -180803  -136821   118836 
  527309   959794  1108730   782254   213641  -256720  -629002  -969101 
 -844590  -350298  -232404  -284966   -45721   219338   313393   217049 
  -47284  -190535    21917   360234   510658   541794   464764   189593 
  -75195  -270618  -477486  -547692  -493768  -381763  -179299  -111027 
 -269057  -406208  -373609  -124689   271284   618972   771992   600102 
  261251   144898   174429   105826    29038  -154897  -458444  -447989 
 -242214  -269935  -314220   -78686   384353   849309  1064265   879995 
  258999  -381936  -554522  -448268  -272286   -63221    -1343    37078 
   62627   -91367  -160851   -82000   -78882   -82124  -112867  -407145 
 -815332  -843751  -513944  -385660  -475877  -269750   240847   642855 
  754746   606916   396143   351581   365014   267065    87239  -184198 
 -360282  -111828   374051   628490   511872    96831  -376968  -460972 
  -72400   382151   682650   856781   791211   493703   258399    63259 
 -380682  -917265 -1299563 -1582527 -1537735  -942321  -200064   223916 
  246505    88930   -28273  -176361  -357321  -393137  -182046   238275 
  567397   609512   540520   392607   212974   324829   627697   757749 
  737316   634828   463149   334673   287259   307718   245581   -75740 
 -482732  -824460 -1229170 -1575781 -1533050 -1064290  -312791   568786 
 1169775   931927   -37978  -775672  -887217  -814797  -475992   108551 
  497527   866174  1149558  1010240   801895   735542   585158   345645 
  163379   -22695  -325222  -490536  -332143  -145093   -53741    78197 
  130729    -5396  -243187  -554160  -893920 -1182459 -1334600 -1275419 
-1142473 -1006659  -676467  -221441   133385   490012   765746   640491 
  422324   480548   481445   401113   587221   825311   937441  1091501 
 1253816  1395786  1415280  1013108   384121   114387   202572   177766 
  -31736  -344452  -822731 -1233671 -1407980 -1407559 -1117764  -691775 
 -494101  -434821  -336078  -307259  -391231  -509766  -630259  -630954 
 -314222   304834   834189   900534   718811   575354   350828   158986 
  214216   371495   547875   692734   614750   304962   -68519  -329740 
 -407793  -395613  -258380   156556   616710   747539   628767   442836 
  203844     2685  -129504  -237407  -300793  -349337  -489939  -790842 
-1122735 -1286268 -1262941 -1092516  -816923  -569797  -426423  -348494 
 -284584   -99922   330277   921336  1442381  1497221   920299   349180 
  313522   430188   372107   325991   417415   553506   519299   235759 
  -57509  -224245  -404849  -605643  -738439  -775363  -509009    48353 
  326587   118431  -114529  -265747  -571443  -844613  -833421  -616489 
 -384676  -274903  -177319   164612   800795  1352880  1259081   683732 
  369101   331726   218204   245153   483989   649791   758587   823395 
  653494   316345    23350  -276445  -747360 -1365955 -1824833 -1759900 
-1327073  -967719  -745233  -642281  -617065  -440916   -91562   452826 
 1104840  1210205   697937   453926   598687   584657   547704   618732 
  491504   228078    84050    86094   150782   187786   228479   392049 
  610526   578093   239408   -25626  -104086  -242234  -411190  -500513 
 -560158  -500951  -290621  -119543   -63501   -75589  -183857  -247352 
   75596   541365   482870   132770    56974  -106877  -563765  -860741 
 -996118 -1074480  -989057  -958330 -1030054  -910619  -562249  -171362 
  235772   792849  1407649  1762699  1713539  1425948  1152742   830279 
  285054  -207595  -306516  -197106  -184291  -149728    76672   361094 
  605950   737816   612778   358223   113669  -303685  -955193 -1535076 
-1579057  -948610  -243679    54006   328659   775276   890904   466512 
 -103770  -466462  -715592 -1020778 -1230021 -1269135 -1202827  -942284 
 -563288  -214549   229322   721826   887957   712736   586283   519667 
  327558   249258   424552   617234   680750   588237   450021   460125 
  571427   634529   575876   370852   154898    60059    -8519  -201551 
 -533630  -829795  -852142  -635971  -431417  -272127   -80413    44511 
   62798    47735   -28439  -139712  -140260     8080   221236   367839 
  372373   355159   391362   379661   287405   152005    64742    72365 
   25123  -112123  -257844  -428317  -539160  -563385  -660387  -806893 
 -851420  -746731  -504153  -244970   -85713    75530   324389   560377 
  743395   874343   844464   630833   327624   -14336  -373179  -653498 
 -679630  -517257  -396917  -223210    72610   288214   394154   446120 
  486639   652346   888884   993818   930119   697975   315068    -3598 
 -182330  -428526  -731999  -883814  -831321  -633746  -454723  -394283 
 -272457    23169   340610   536161   579255   508937   395636   274638 
  187885   167489   133325    14115  -165315  -398847  -665424  -904323 
-1100572 -1182470 -1029978  -721479  -458957  -277240   -90743   172056 
  525459   816241   920179   935830   950623   989520  1081763  1176011 
 1144689   858228   440403   187944   -49152  -530784  -970014 -1211442 
-1392146 -1331182  -976816  -597913  -327096  -148781    76431   352879 
